FENGYUN 3A              
1 32958U 08026A   26167.06055992  .00000046  00000+0  42262-4 0  9990
2 32958  98.6883 107.9147 0009544 126.6138 233.5917 14.19570873935247
EWS-G2 (GOES 15)        
1 36411U 10008A   26167.17525350  .00000016  00000+0  00000+0 0  9999
2 36411   1.2753  82.8735 0005413  42.3765 266.0013  1.00275834 59628
FENGYUN 3B              
1 37214U 10059A   26167.24613726 -.00000204  00000+0 -82043-4 0  9993
2 37214  98.9621 213.2565 0021850 186.6832 250.4251 14.14840922807298
EXACTVIEW-1 (ADS-1B)    
1 38709U 12039C   26167.18757201  .00000094  00000+0  59879-4 0  9999
2 38709  98.9776 284.5552 0011109 169.1911 190.9508 14.24984290722563
FENGYUN 3C              
1 39260U 13052A   26167.19573272  .00000064  00000+0  53719-4 0  9997
2 39260  98.4986 141.1160 0015307  30.3656 329.8403 14.15754811658420
DUBAISAT-2              
1 39419U 13066D   26167.20942676  .00001400  00000+0  89486-4 0  9993
2 39419  97.4555 157.3790 0012449  43.8372 316.3843 15.10173524686245
FENGYUN 2G              
1 40367U 14090A   26166.92960939 -.00000306  00000+0  00000+0 0  9990
2 40367   5.6350  72.8268 0004081 156.1097 109.6095  1.00272763 41986
ELEKTRO-L 2             
1 41105U 15074A   26166.96906061 -.00000122  00000+0  00000+0 0  9990
2 41105   6.6903  70.5362 0001048 244.2830 283.7788  1.00270394 38499
FENGYUN 2H              
1 43491U 18050A   26167.05897030 -.00000132  00000+0  00000+0 0  9994
2 43491   3.0276  79.0815 0002000 138.2067 147.6875  1.00269672 29428
EOS-4                   
1 51656U 22013A   26167.17299380  .00001328  00000+0  79518-4 0  9999
2 51656  97.5099 173.8376 0001858  88.1345 272.0099 15.12719003239338
